240P/NEAT,e,23.5047,74.9241,352.0211,3.868844,0.1295186,0.44868673,88.7695,03/31.0/2020,2000,g 11.0,4.0
# From MPC 75729
241P/LINEAR,e,21.0829,305.4835,111.1407,4.940699,0.0897473,0.61087428,316.8116,03/31.0/2020,2000,g 13.5,4.0
# From MPC 81861
242P/Spahr,e,32.4802,180.4962,246.2807,5.476590,0.0769022,0.27787412,226.0526,03/31.0/2020,2000,g  8.0,4.0
# From MPC111774
243P/NEAT,e,7.6414,87.6566,283.5317,3.831767,0.1314030,0.35966887,76.6035,03/31.0/2020,2000,g 12.5,4.0
# From MPC 88331
244P/Scotti,e,2.2590,353.9907,92.8571,4.895538,0.0909921,0.19820398,272.6356,03/31.0/2020,2000,g  9.0,4.0
# From MPC111774
245P/WISE,e,21.1968,316.6564,316.7931,4.041915,0.1212895,0.45769819,94.7491,03/31.0/2020,2000,g 14.0,4.0
# From MPC114608
246P/NEAT,e,15.9871,78.7486,176.2414,4.016144,0.1224588,0.28679494,319.7623,03/31.0/2020,2000,g 10.5,4.0
# From MPC112394
247P/LINEAR,e,13.6580,54.0126,47.4801,3.970478,0.1245776,0.62466849,60.4172,03/31.0/2020,2000,g 16.5,2.0
# From MPC 75730
248P/Gibbs,e,6.3463,207.7457,209.9326,5.990189,0.0672269,0.63780368,225.7243,03/31.0/2020,2000,g 14.0,4.0
# From MPC105243
249P/LINEAR,e,8.3970,239.1781,65.6084,2.761445,0.2147828,0.82011332,340.5620,03/31.0/2020,2000,g 15.5,4.0
# From MPC110497
250P/Larson,e,13.2597,73.6790,45.7488,3.748674,0.1357962,0.40533356,106.8968,03/31.0/2020,2000,g 14.5,4.0
# From MPC104795
251P/LINEAR,e,23.4091,219.4045,31.2485,3.509484,0.1499129,0.50562168,148.1766,03/31.0/2020,2000,g 16.5,2.0
# From MPC102956
252P/LINEAR,e,10.4119,190.9553,343.3226,3.049125,0.1851148,0.67207256,273.5645,03/31.0/2020,2000,g 17.5,4.0
# From MPC112394
253P/PANSTARRS,e,4.9420,146.8743,230.6614,3.468373,0.1525862,0.41326920,105.7846,03/31.0/2020,2000,g 14.5,4.0
# From MPC 81473
254P/McNaught,e,32.5670,129.1715,219.4384,4.618856,0.0992893,0.32080830,341.8882,03/31.0/2020,2000,g 11.0,4.0
# From NK 2214
255P/Levy,e,18.2610,278.8568,182.2662,2.921938,0.1973320,0.73219253,190.9393,03/31.0/2020,2000,g  9.0,4.0
# From MPC 84027
256P/LINEAR,e,27.6377,81.3494,124.3158,4.635861,0.0987435,0.41855076,253.7410,03/31.0/2020,2000,g 14.0,2.0
# From MPC114608
257P/Catalina,e,20.2222,207.7616,117.6473,3.764387,0.1349468,0.43090990,337.8972,03/31.0/2020,2000,g 11.5,4.0
# From MPC 79655
258P/PANSTARRS,e,6.7457,126.2471,26.1225,4.402666,0.1066917,0.20922256,351.3967,03/31.0/2020,2000,g 13.0,4.0
# From MPC106349
259P/Garradd,e,15.8878,51.4673,257.5507,2.731281,0.2183507,0.33834315,211.6628,03/31.0/2020,2000,g 15.5,4.0
# From MPEC 2020-C98
260P/McNaught,e,15.0520,349.3509,18.3980,3.622014,0.1429812,0.60885941,29.0299,03/31.0/2020,2000,g 13.5,4.0
# From MPEC 2019-TG9
261P/Larson,e,6.0761,291.1623,67.1245,3.489166,0.1512243,0.42294926,43.2941,03/31.0/2020,2000,g 14.0,4.0
# From MPC 82322
262P/McNaught-Russell,e,29.1551,217.9136,170.9995,6.877462,0.0546464,0.81490755,146.3574,03/31.0/2020,2000,g 13.5,4.0
# From MPC 89018
263P/Gibbs,e,11.5505,105.8175,34.4370,3.055742,0.1845139,0.58928340,168.3851,03/31.0/2020,2000,g  9.0,4.0
# From MPC114608
264P/Larsen,e,25.1416,220.8885,346.6626,3.897408,0.1280974,0.37434112,30.6108,03/31.0/2020,2000,g 13.0,4.0
# From MPC 79870
265P/LINEAR,e,14.3587,342.9764,33.4118,4.253734,0.1123437,0.64786319,324.6111,03/31.0/2020,2000,g 14.5,4.0
# From MPEC 2019-TG9
266P/Christensen,e,3.4258,5.0043,97.8567,3.535567,0.1482571,0.33950226,357.1022,03/31.0/2020,2000,g 12.5,4.0
# From MPC114608
267P/LONEOS,e,6.1375,228.6728,114.0829,3.212273,0.1711928,0.61390784,105.7211,03/31.0/2020,2000,g 19.5,4.0
# From MPC 92277
268P/Bernardi,e,16.1328,127.5826,0.1111,4.552367,0.1014725,0.47072018,182.7770,03/31.0/2020,2000,g 14.0,4.0
# From MPC104795
269P/Jedicke,e,7.0701,241.7025,226.0044,7.082124,0.0522948,0.43063300,104.9627,03/31.0/2020,2000,g 10.0,4.0
# From MPC 88332
270P/Gehrels,e,2.9170,222.9601,209.9458,6.670368,0.0572110,0.46680598,142.3708,03/31.0/2020,2000,g  8.0,4.0
# From MPC 92277
271P/van Houten-Lemmon,e,6.8643,9.2941,36.5030,7.050385,0.0526484,0.39308357,129.3211,03/31.0/2020,2000,g 11.0,4.0
# From MPC 81862
272P/NEAT,e,18.0763,109.4654,28.0119,4.453434,0.1048725,0.45416366,272.0641,03/31.0/2020,2000,g 16.0,2.0
# From MPC 82723
273P/Pons-Gambart,e,136.7369,320.4003,20.2880,31.68254,0.0055268,0.97404028,0.0000,12/16.8672/2012,2000,g 11.5,4.0
# From MPC 88332
274P/Tombaugh-Tenagra,e,15.8177,81.3360,38.5315,4.370199,0.1078828,0.43868255,280.2929,03/31.0/2020,2000,g 13.0,4.0
# From MPC 81862
275P/Hermann,e,21.2884,348.7564,174.1145,5.770730,0.0710981,0.71268575,188.7053,03/31.0/2020,2000,g 17.0,4.0
# From MPC114609
276P/Vorobjov,e,14.8246,211.4696,200.0292,5.309813,0.0805537,0.26747003,221.1377,03/31.0/2020,2000,g 11.5,4.0
# From MPC105243
277P/LINEAR,e,16.7792,276.3453,152.3111,3.851579,0.1303905,0.50547263,324.2466,03/31.0/2020,2000,g 14.0,4.0
# From MPC105243
278P/McNaught,e,6.6851,15.4495,238.0814,3.692965,0.1388805,0.43485435,337.0769,03/31.0/2020,2000,g 14.0,4.0
# From MPC100285
279P/La Sagra,e,5.0509,346.2242,5.7545,3.576065,0.1457458,0.39787382,197.4877,03/31.0/2020,2000,g 14.0,4.0
# From MPC 89013
280P/Larsen,e,11.7739,131.3992,104.7948,4.528804,0.1022654,0.41814313,235.1399,03/31.0/2020,2000,g 12.5,4.0
# From MPC 83145
281P/MOSS,e,4.7198,87.1709,26.9379,4.868516,0.0917507,0.17150696,264.5764,03/31.0/2020,2000,g 11.0,4.0
# From MPC xxxxx
282P/,e,5.8096,9.3023,217.4810,4.245559,0.1126683,0.18938162,295.5886,03/31.0/2020,2000,g 13.5,2.0
# From MPEC 2013-M31
283P/Spacewatch,e,14.4538,161.1428,22.2781,4.139089,0.1170434,0.48510628,298.4312,03/31.0/2020,2000,g  9.0,4.0
# From MPC 93589
284P/McNaught,e,11.8584,144.2815,202.6729,3.674554,0.1399256,0.37582372,285.6368,03/31.0/2020,2000,g 13.0,4.0
# From MPC 85339
285P/LINEAR,e,25.0246,185.4833,178.4053,4.509139,0.1029351,0.61792357,255.2242,03/31.0/2020,2000,g 15.0,4.0
# From MPC 90771
286P/Christensen,e,17.0449,283.9652,24.7395,4.111751,0.1182126,0.42515025,268.6795,03/31.0/2020,2000,g 14.0,4.0
# From MPC 96868
287P/Christensen,e,16.3179,139.0379,188.8140,4.168434,0.1158097,0.27040392,222.1637,03/31.0/2020,2000,g 13.5,4.0
# From MPC xxxxx
288P/,e,3.2403,83.1870,280.7805,3.047128,0.1852968,0.20135726,229.7523,03/31.0/2020,2000,g 16.0,2.0
# From MPC118844
289P/Blanpain,e,5.8939,68.8902,9.8909,3.048526,0.1851694,0.68544303,18.7027,03/31.0/2020,2000,g 20.0,4.0
# From MPC 95214
290P/Jager,e,19.8009,302.8602,181.4635,6.140445,0.0647745,0.64655594,143.1197,03/31.0/2020,2000,g 10.5,4.0
# From MPC 89314
291P/NEAT,e,6.3372,238.2503,174.1098,4.505921,0.1030454,0.43702340,243.3757,03/31.0/2020,2000,g 13.0,4.0
# From MPC115887
292P/Li,e,24.2520,91.0026,319.4796,6.111151,0.0652408,0.58746907,146.9379,03/31.0/2020,2000,g 12.5,4.0
# From MPC 92278
293P/Spacewatch,e,9.0571,78.4114,41.0938,3.643050,0.1417446,0.41817957,322.6691,03/31.0/2020,2000,g 14.5,4.0
# From MPC 89013
294P/LINEAR,e,18.2153,312.5959,235.5411,3.205440,0.1717404,0.59427144,20.9978,03/31.0/2020,2000,g 15.5,4.0
# From MPC 93589
295P/LINEAR,e,21.0730,7.4165,72.9744,5.306505,0.0806290,0.61601462,173.7439,03/31.0/2020,2000,g 12.0,4.0
# From MPC 92278
296P/Garradd,e,25.2351,263.6404,350.1184,3.496705,0.1507355,0.47850588,334.2374,03/31.0/2020,2000,g 14.0,4.0
# From MPC102956
297P/Beshore,e,10.3286,97.6611,132.4550,3.443376,0.1542508,0.31937490,314.0769,03/31.0/2020,2000,g 15.0,4.0
# From MPC114609
298P/Christensen,e,7.8702,52.8294,100.6947,3.593714,0.1446734,0.38695188,336.9401,03/31.0/2020,2000,g 15.0,4.0
# From MPC101100
299P/Catalina-PANSTARRS,e,10.4779,271.6229,323.8997,4.383324,0.1073986,0.28212873,199.8944,03/31.0/2020,2000,g 11.5,4.0
# From MPC114609
300P/Catalina,e,5.6765,95.6699,222.8635,2.700041,0.2221511,0.69164751,114.3767,03/31.0/2020,2000,g 16.0,4.0
# From MPC 89014
301P/LINEAR-NEAT,e,10.3467,351.1799,193.7309,5.737190,0.0717225,0.58589891,146.2524,03/31.0/2020,2000,g 13.0,4.0
# From MPEC 2020-C98
302P/Lemmon-PANSTARRS,e,6.0339,121.7537,208.1640,4.277944,0.1113913,0.22966091,159.2677,03/31.0/2020,2000,g 12.5,4.0
# From MPC 92278
303P/NEAT,e,7.0163,347.9711,356.8480,5.050103,0.0868468,0.50991295,173.1750,03/31.0/2020,2000,g 13.5,4.0
# From MPC 92987
304P/Ory,e,2.6067,58.9394,335.2160,3.150389,0.1762616,0.60045391,336.2985,03/31.0/2020,2000,g 16.5,4.0
# From MPC101100
305P/Skiff,e,11.6395,240.1386,147.2635,4.645503,0.0984362,0.69261908,193.2693,03/31.0/2020,2000,g 18.0,4.0
# From MPC 92278
306P/LINEAR,e,8.3104,341.3839,0.8018,3.121367,0.1787257,0.59316826,12.1783,03/31.0/2020,2000,g 19.0,4.0
# From MPC 92278
307P/LINEAR,e,4.4307,158.1217,222.1768,5.795839,0.0706366,0.67385683,136.2250,03/31.0/2020,2000,g 15.0,4.0
# From MPC109148
308P/Lagerkvist-Carsenty,e,4.8493,63.1153,333.6502,6.609342,0.0580052,0.36251812,103.9490,03/31.0/2020,2000,g 13.0,2.0
# From MPC 94284
309P/LINEAR,e,17.0244,10.1476,50.0039,4.370425,0.1078744,0.61758981,202.4190,03/31.0/2020,2000,g 15.0,4.0
# From MPC 98566
310P/Hill,e,13.1285,8.9288,31.8957,4.177173,0.1154464,0.42169596,209.4979,03/31.0/2020,2000,g 13.5,4.0
# From MPC109593
311P/PANSTARRS,e,4.9700,279.2270,144.5889,2.188356,0.3044579,0.11526970,302.0151,03/31.0/2020,2000,g 17.0,4.0
# From MPC 92279
312P/NEAT,e,19.7644,144.6732,207.5202,3.468441,0.1525818,0.42822211,332.8467,03/31.0/2020,2000,g 16.0,4.0
# From MPEC 2019-TG9
313P/Gibbs,e,10.9834,105.9722,254.6049,3.161011,0.1753739,0.23477260,357.3409,03/31.0/2020,2000,g 15.0,4.0
# From MPC105243
314P/Montani,e,3.9790,267.6200,214.2421,7.277318,0.0502050,0.41643014,63.6870,03/31.0/2020,2000,g  9.5,4.0
# From MPC115888
315P/LONEOS,e,17.8556,69.2269,65.6298,4.943712,0.0896653,0.52273256,108.7778,03/31.0/2020,2000,g 11.0,4.0
# From MPC 92279
316P/LONEOS-Christensen,e,9.8871,246.7671,193.8921,4.345000,0.1088227,0.16124164,175.7058,03/31.0/2020,2000,g 13.5,4.0
# From MPEC 2020-C98
317P/WISE,e,11.9509,275.5197,334.8998,2.965446,0.1930052,0.57043559,325.4181,03/31.0/2020,2000,g 17.5,4.0
# From MPC102103
318P/McNaught-Hartley,e,17.8717,35.6606,313.0988,7.496490,0.0480194,0.67477490,77.8217,03/31.0/2020,2000,g  8.5,6.0
# From MPC 97499
